NORAD_CAT_ID,OBJECT_NAME,OBJECT_TYPE,EPOCH,MEAN_MOTION,ECCENTRICITY,INCLINATION,RA_OF_ASC_NODE,ARG_OF_PERICENTER,MEAN_ANOMALY,BSTAR,MEAN_MOTION_DOT,MEAN_MOTION_DDOT,TLE_LINE0,TLE_LINE1,TLE_LINE2,SEMIMAJOR_AXIS,PERIOD,APOGEE,PERIGEE,DECAYED
52265.0,STARLINK-3740,PAYLOAD,2022-07-29 00:00:00,15.08811855,0.0002017,53.214,273.4295,46.1655,294.3987,0.0023585,0.00037419,0.0,0 STARLINK-3740,1 52265U 22041E   22210.00001157  .00037419  00000-0  23585-2 0  9999,2 52265  53.2140 273.4295 0002017  46.1655 294.3987 15.08811855 16355,6917.965999999999,95.439,541.227,538.436,0.0
52265.0,STARLINK-3740,PAYLOAD,2022-07-29 14:00:01,15.08815479,0.0002230999999999,53.2137,270.8126,42.9705,227.8682,0.0023916999999999,0.00037956,0.0,0 STARLINK-3740,1 52265U 22041E   22210.58334491  .00037956  00000-0  23917-2 0  9997,2 52265  53.2137 270.8126 0002231  42.9705 227.8682 15.08815479  1301,6917.955,95.439,541.364,538.2769999999998,0.0
52265.0,STARLINK-3740,PAYLOAD,2022-07-29 22:00:00,15.0883679,0.0002051,53.2135,269.3146,46.0039,236.42,-0.00031945,-5.368e-05,0.0,0 STARLINK-3740,1 52265U 22041E   22210.91667824 -.00005368  00000-0 -31945-3 0  9998,2 52265  53.2135 269.3146 0002051  46.0039 236.4200 15.08836790  1300,6917.89,95.438,541.174,538.336,0.0
52265.0,STARLINK-3740,PAYLOAD,2022-07-30 06:00:00,15.08853005,0.0002039,53.2136,267.8184,48.5809,245.4262,-0.0012246,-0.00019732,0.0,0 STARLINK-3740,1 52265U 22041E   22211.25001157 -.00019732  00000-0 -12246-2 0  9999,2 52265  53.2136 267.8184 0002039  48.5809 245.4262 15.08853005 16542,6917.840999999999,95.437,541.116,538.295,0.0
52265.0,STARLINK-3740,PAYLOAD,2022-07-30 14:00:01,15.08819578,0.0002223,53.2135,266.3234,44.0613,261.5543,0.0024563,0.00038999,0.0,0 STARLINK-3740,1 52265U 22041E   22211.58334491  .00038999  00000-0  24563-2 0  9994,2 52265  53.2135 266.3234 0002223  44.0613 261.5543 15.08819578  1306,6917.943,95.439,541.346,538.27,0.0
52265.0,STARLINK-3740,PAYLOAD,2022-07-30 22:00:00,15.0883601,0.0002058,53.2134,264.8252,47.575,269.6335,0.00024209,3.566e-05,0.0,0 STARLINK-3740,1 52265U 22041E   22211.91667824  .00003566  00000-0  24209-3 0  9990,2 52265  53.2134 264.8252 0002058  47.5750 269.6335 15.08836010  1302,6917.893,95.438,541.181,538.3340000000002,0.0
52265.0,STARLINK-3740,PAYLOAD,2022-07-31 06:00:02,15.08860515,0.0002076,53.2133,263.329,49.4776,279.3825,-0.0014913,-0.00023958,0.0,0 STARLINK-3740,1 52265U 22041E   22212.25002315 -.00023958  00000-0 -14913-2 0  9995,2 52265  53.2133 263.3290 0002076  49.4776 279.3825 15.08860515 16693,6917.818,95.436,541.119,538.247,0.0
52265.0,STARLINK-3740,PAYLOAD,2022-07-31 14:00:01,15.08824133,0.000224,53.2139,261.8338,44.7925,295.6173,0.0025165,0.00039973,0.0,0 STARLINK-3740,1 52265U 22041E   22212.58334491  .00039973  00000-0  25165-2 0  9997,2 52265  53.2139 261.8338 0002240  44.7925 295.6173 15.08824133  1307,6917.929,95.439,541.344,538.244,0.0
52265.0,STARLINK-3740,PAYLOAD,2022-07-31 22:00:00,15.08839719,0.0002064,53.2146,260.3356,48.188,303.8218,0.00030314,4.54e-05,0.0,0 STARLINK-3740,1 52265U 22041E   22212.91667824  .00004540  00000-0  30314-3 0  9998,2 52265  53.2146 260.3356 0002064  48.1880 303.8218 15.08839719  1309,6917.880999999999,95.438,541.174,538.318,0.0
52265.0,STARLINK-3740,PAYLOAD,2022-08-01 06:00:00,15.08855581,0.0002088,53.2148,258.8396,48.3111,315.2929,-0.0033698,-0.00053545,0.0,0 STARLINK-3740,1 52265U 22041E   22213.25001157 -.00053545  00000-0 -33698-2 0  9995,2 52265  53.2148 258.8396 0002088  48.3111 315.2929 15.08855581 16848,6917.833000000001,95.437,541.1419999999998,538.253,0.0
52265.0,STARLINK-3740,PAYLOAD,2022-08-01 14:00:01,15.08807347,0.0002215,53.2145,257.3443,42.9928,332.2115,0.0027274,0.00043348,0.0,0 STARLINK-3740,1 52265U 22041E   22213.58334491  .00043348  00000-0  27274-2 0  9992,2 52265  53.2145 257.3443 0002215  42.9928 332.2115 15.08807347  1308,6917.98,95.44,541.378,538.313,0.0
52265.0,STARLINK-3740,PAYLOAD,2022-08-01 22:00:00,15.08812897,0.0002064,53.2147,255.846,46.9048,339.8763,0.0013988,0.00022028,0.0,0 STARLINK-3740,1 52265U 22041E   22213.91667824  .00022028  00000-0  13988-2 0  9997,2 52265  53.2147 255.8460 0002064  46.9048 339.8763 15.08812897  1309,6917.9630000000025,95.439,541.256,538.4,0.0
52265.0,STARLINK-3740,PAYLOAD,2022-08-02 14:00:01,15.088130800000002,0.0002306,53.2148,252.8547,43.1069,6.835,0.002478,0.00039342,0.0,0 STARLINK-3740,1 52265U 22041E   22214.58334491  .00039342  00000-0  24780-2 0  9991,2 52265  53.2148 252.8547 0002306  43.1069   6.8350 15.08813080  1302,6917.9630000000025,95.439,541.423,538.232,0.0
52265.0,STARLINK-3740,PAYLOAD,2022-08-03 06:00:00,15.08853903,0.0002275,53.2153,249.8607,47.8337,25.2701,-0.0020011,-0.00032008,0.0,0 STARLINK-3740,1 52265U 22041E   22215.25001157 -.00032008  00000-0 -20011-2 0  9993,2 52265  53.2153 249.8607 0002275  47.8337  25.2701 15.08853903 17158,6917.8380000000025,95.437,541.2769999999998,538.129,0.0
52265.0,STARLINK-3740,PAYLOAD,2022-08-03 14:00:01,15.08822627,0.0002396,53.2153,248.3652,43.6346,41.0691,0.0021771,0.00034515,0.0,0 STARLINK-3740,1 52265U 22041E   22215.58334491  .00034515  00000-0  21771-2 0  9996,2 52265  53.2153 248.3652 0002396  43.6346  41.0691 15.08822627  1303,6917.933000000001,95.439,541.456,538.141,0.0
52265.0,STARLINK-3740,PAYLOAD,2022-08-03 22:00:01,15.08821543,0.000222,53.2157,246.867,48.0586,48.306,0.0021719,0.0003443,0.0,0 STARLINK-3740,1 52265U 22041E   22215.91668981  .00034430  00000-0  21719-2 0  9995,2 52265  53.2157 246.8670 0002220  48.0586  48.3060 15.08821543  1307,6917.937,95.439,541.3380000000002,538.266,0.0
52265.0,STARLINK-3740,PAYLOAD,2022-08-04 14:00:01,15.08833312,0.0002456,53.2157,243.8758,44.5421,74.949,0.0016878,0.00026671,0.0,0 STARLINK-3740,1 52265U 22041E   22216.58334491  .00026671  00000-0  16878-2 0  9993,2 52265  53.2157 243.8758 0002456  44.5421  74.9490 15.08833312  1300,6917.901,95.438,541.465,538.067,0.0
52265.0,STARLINK-3740,PAYLOAD,2022-08-04 22:00:00,15.08826111,0.0002259,53.216,242.3777,49.1933,81.9046,0.002293,0.00036381,0.0,0 STARLINK-3740,1 52265U 22041E   22216.91667824  .00036381  00000-0  22930-2 0  9994,2 52265  53.2160 242.3777 0002259  49.1933  81.9046 15.08826111  1303,6917.9230000000025,95.438,541.351,538.225,0.0
52265.0,STARLINK-3740,PAYLOAD,2022-08-05 06:00:02,15.08863982,0.0002381,53.2162,240.8822,49.034,93.7196,-0.0018783,-0.00030078,0.0,0 STARLINK-3740,1 52265U 22041E   22217.25002315 -.00030078  00000-0 -18783-2 0  9990,2 52265  53.2162 240.8822 0002381  49.0340  93.7196 15.08863982 17453,6917.807,95.436,541.319,538.025,0.0
52265.0,STARLINK-3740,PAYLOAD,2022-08-05 14:00:01,15.08850009,0.0002455,53.2158,239.3864,45.3375,109.025,-1.7371e-05,-5.65e-06,0.0,0 STARLINK-3740,1 52265U 22041E   22217.58335648 -.00000565  00000-0 -17371-4 0  9996,2 52265  53.2158 239.3864 0002455  45.3375 109.0250 15.08850009  1301,6917.85,95.437,541.413,538.016,0.0
52265.0,STARLINK-3740,PAYLOAD,2022-08-05 22:00:00,15.08815813,0.0002195999999999,53.2159,237.8884,49.0051,116.9129,0.0012277,0.00019292,0.0,0 STARLINK-3740,1 52265U 22041E   22217.91667824  .00019292  00000-0  12277-2 0  9990,2 52265  53.2159 237.8884 0002196  49.0051 116.9129 15.08815813  1307,6917.954000000002,95.439,541.339,538.3,0.0
52265.0,STARLINK-3740,PAYLOAD,2022-08-06 05:13:01,15.08838981,0.0002166999999999,53.2166,236.537,55.4678,304.6519,-1.4836e-05,-5.24e-06,0.0,0 STARLINK-3740,1 52265U 22041E   22218.21737800 -.00000524  00000-0 -14836-4 0  9991,2 52265  53.2166 236.5370 0002167  55.4678 304.6519 15.08838981 17593,6917.884,95.438,541.248,538.249,0.0
52265.0,STARLINK-3740,PAYLOAD,2022-08-06 14:00:01,15.08826255,0.0002384999999999,53.2155,234.8974,45.5276,143.5442,0.00038215,5.797e-05,0.0,0 STARLINK-3740,1 52265U 22041E   22218.58334491  .00005797  00000-0  38215-3 0  9991,2 52265  53.2155 234.8974 0002385  45.5276 143.5442 15.08826255  1306,6917.922,95.438,541.437,538.137,0.0
52265.0,STARLINK-3740,PAYLOAD,2022-08-06 22:00:00,15.0880765,0.0002204,53.2154,233.3995,50.601000000000006,150.0581,0.0023805999999999,0.0003776999999999,0.0,0 STARLINK-3740,1 52265U 22041E   22218.91667824  .00037770  00000-0  23806-2 0  9992,2 52265  53.2154 233.3995 0002204  50.6010 150.0581 15.08807650  1300,6917.979,95.44,541.369,538.32,0.0
52265.0,STARLINK-3740,PAYLOAD,2022-08-07 06:00:00,15.0884014,0.0002339,53.2153,231.9046,49.499,162.7335,-0.0015780999999999,-0.00025317,0.0,0 STARLINK-3740,1 52265U 22041E   22219.25001157 -.00025317  00000-0 -15781-2 0  9990,2 52265  53.2153 231.9046 0002339  49.4990 162.7335 15.08840140 17756,6917.88,95.438,541.363,538.127,0.0
52265.0,STARLINK-3740,PAYLOAD,2022-08-07 11:25:21,15.08835594,0.0002318,53.2163,230.8893,50.4209,309.6987,-5.010300000000001e-05,-1.086e-05,0.0,0 STARLINK-3740,1 52265U 22041E   22219.47594653 -.00001086  00000-0 -50103-4 0  9998,2 52265  53.2163 230.8893 0002318  50.4209 309.6987 15.08835594 16567,6917.894,95.438,541.362,538.155,0.0
52265.0,STARLINK-3740,PAYLOAD,2022-08-07 22:00:00,15.08812137,0.0002263,53.2146,228.9105,52.5732,182.8337,0.0024936999999999,0.00039593,0.0,0 STARLINK-3740,1 52265U 22041E   22219.91667824  .00039593  00000-0  24937-2 0  9994,2 52265  53.2146 228.9105 0002263  52.5732 182.8337 15.08812137 17856,6917.965999999999,95.439,541.396,538.265,0.0
52265.0,STARLINK-3740,PAYLOAD,2022-08-08 14:00:01,15.08848031,0.0002445,53.2141,225.9193,48.8559,209.7839,-0.00076931,-0.00012514,0.0,0 STARLINK-3740,1 52265U 22041E   22220.58335648 -.00012514  00000-0 -76931-3 0  9993,2 52265  53.2141 225.9193 0002445  48.8559 209.7839 15.08848031  1303,6917.856,95.437,541.4119999999998,538.029,0.0
52265.0,STARLINK-3740,PAYLOAD,2022-08-08 22:00:00,15.08823185,0.0002345,53.2141,224.4213,54.0492,216.135,0.0027441999999999,0.00043637,0.0,0 STARLINK-3740,1 52265U 22041E   22220.91667824  .00043637  00000-0  27442-2 0  9994,2 52265  53.2141 224.4213 0002345  54.0492 216.1350 15.08823185  1307,6917.932,95.439,541.419,538.175,0.0
